{
  "type": "FeatureCollection",
  "features": [
    {
      "type": "Feature",
      "properties": {
        "norad_id": 38067,
        "name": "COSMOS 2251 DEB",
        "group": "cosmos-2251-debris",
        "lat": 60.369396440403456,
        "lon": 79.25333998175623,
        "alt_km": 643.6768337731801,
        "timestamp": "2025-12-04T21:36:16.269995+00:00",
        "meta_object_name": "COSMOS 2251 DEB",
        "meta_object_id": "1993-036BRZ",
        "meta_epoch": "2025-11-29T04:46:36.876288",
        "meta_mean_motion": 14.61044936,
        "meta_eccentricity": 0.00691529,
        "meta_inclination": 74.017,
        "meta_ra_of_asc_node": 300.4181,
        "meta_arg_of_pericenter": 91.9303,
        "meta_mean_anomaly": 288.2542,
        "meta_ephemeris_type": 0,
        "meta_classification_type": "U",
        "meta_norad_cat_id": 38067,
        "meta_element_set_no": 999,
        "meta_rev_at_epoch": 62358,
        "meta_bstar": 0.00037425936,
        "meta_mean_motion_dot": 1.87e-05,
        "meta_mean_motion_ddot": 0,
        "tle_line1": "1 38067U 93036BRZ 25333.19903792  .00001870  00000+0  37426-3 0  9991",
        "tle_line2": "2 38067  74.0170 300.4181 0069152  91.9303 288.2542 14.61044936623583"
      },
      "geometry": {
        "type": "Point",
        "coordinates": [
          79.25333998175623,
          60.369396440403456
        ]
      }
    },
    {
      "type": "Feature",
      "properties": {
        "norad_id": 38068,
        "name": "COSMOS 2251 DEB",
        "group": "cosmos-2251-debris",
        "lat": -44.66320766399008,
        "lon": 159.0983717283918,
        "alt_km": 795.2857697946129,
        "timestamp": "2025-12-04T21:36:16.270005+00:00",
        "meta_object_name": "COSMOS 2251 DEB",
        "meta_object_id": "1993-036BSA",
        "meta_epoch": "2025-11-26T00:12:22.263264",
        "meta_mean_motion": 14.35960004,
        "meta_eccentricity": 0.00240903,
        "meta_inclination": 74.0219,
        "meta_ra_of_asc_node": 338.9788,
        "meta_arg_of_pericenter": 72.1007,
        "meta_mean_anomaly": 288.2769,
        "meta_ephemeris_type": 0,
        "meta_classification_type": "U",
        "meta_norad_cat_id": 38068,
        "meta_element_set_no": 999,
        "meta_rev_at_epoch": 66406,
        "meta_bstar": 0.00028750999,
        "meta_mean_motion_dot": 8.11e-06,
        "meta_mean_motion_ddot": 0,
        "tle_line1": "1 38068U 93036BSA 25330.00859101  .00000811  00000+0  28751-3 0  9998",
        "tle_line2": "2 38068  74.0219 338.9788 0024090  72.1007 288.2769 14.35960004664064"
      },
      "geometry": {
        "type": "Point",
        "coordinates": [
          159.0983717283918,
          -44.66320766399008
        ]
      }
    },
    {
      "type": "Feature",
      "properties": {
        "norad_id": 38197,
        "name": "COSMOS 2251 DEB",
        "group": "cosmos-2251-debris",
        "lat": -49.785644069990454,
        "lon": -147.64202248448493,
        "alt_km": 571.9917252576688,
        "timestamp": "2025-12-04T21:36:16.270015+00:00",
        "meta_object_name": "COSMOS 2251 DEB",
        "meta_object_id": "1993-036BSM",
        "meta_epoch": "2025-12-03T10:19:00.710112",
        "meta_mean_motion": 14.73077907,
        "meta_eccentricity": 0.01286379,
        "meta_inclination": 73.9396,
        "meta_ra_of_asc_node": 15.3185,
        "meta_arg_of_pericenter": 255.0006,
        "meta_mean_anomaly": 103.6899,
        "meta_ephemeris_type": 0,
        "meta_classification_type": "U",
        "meta_norad_cat_id": 38197,
        "meta_element_set_no": 999,
        "meta_rev_at_epoch": 85618,
        "meta_bstar": 0.0059536549,
        "meta_mean_motion_dot": 0.00043936,
        "meta_mean_motion_ddot": 0,
        "tle_line1": "1 38197U 93036BSM 25337.42986933  .00043936  00000+0  59537-2 0  9998",
        "tle_line2": "2 38197  73.9396  15.3185 0128637 255.0006 103.6899 14.73077907856184"
      },
      "geometry": {
        "type": "Point",
        "coordinates": [
          -147.64202248448493,
          -49.785644069990454
        ]
      }
    },
    {
      "type": "Feature",
      "properties": {
        "norad_id": 38199,
        "name": "COSMOS 2251 DEB",
        "group": "cosmos-2251-debris",
        "lat": -29.812207264474345,
        "lon": -95.44083388832821,
        "alt_km": 1263.0015369054627,
        "timestamp": "2025-12-04T21:36:16.270025+00:00",
        "meta_object_name": "COSMOS 2251 DEB",
        "meta_object_id": "1993-036BSP",
        "meta_epoch": "2025-12-03T23:27:18.913536",
        "meta_mean_motion": 13.64778984,
        "meta_eccentricity": 0.03692932,
        "meta_inclination": 73.9556,
        "meta_ra_of_asc_node": 76.5844,
        "meta_arg_of_pericenter": 4.8412,
        "meta_mean_anomaly": 355.6113,
        "meta_ephemeris_type": 0,
        "meta_classification_type": "U",
        "meta_norad_cat_id": 38199,
        "meta_element_set_no": 999,
        "meta_rev_at_epoch": 60902,
        "meta_bstar": 0.00068685307,
        "meta_mean_motion_dot": 8.59e-06,
        "meta_mean_motion_ddot": 0,
        "tle_line1": "1 38199U 93036BSP 25337.97730224  .00000859  00000+0  68685-3 0  9992",
        "tle_line2": "2 38199  73.9556  76.5844 0369293   4.8412 355.6113 13.64778984609020"
      },
      "geometry": {
        "type": "Point",
        "coordinates": [
          -95.44083388832821,
          -29.812207264474345
        ]
      }
    },
    {
      "type": "Feature",
      "properties": {
        "norad_id": 38208,
        "name": "COSMOS 2251 DEB",
        "group": "cosmos-2251-debris",
        "lat": -71.88288483303668,
        "lon": -24.28778357284583,
        "alt_km": 625.4536141916669,
        "timestamp": "2025-12-04T21:36:16.270035+00:00",
        "meta_object_name": "COSMOS 2251 DEB",
        "meta_object_id": "1993-036BSY",
        "meta_epoch": "2025-12-02T15:06:31.372992",
        "meta_mean_motion": 14.83188605,
        "meta_eccentricity": 0.00039653,
        "meta_inclination": 74.0061,
        "meta_ra_of_asc_node": 98.9729,
        "meta_arg_of_pericenter": 183.0621,
        "meta_mean_anomaly": 198.654,
        "meta_ephemeris_type": 0,
        "meta_classification_type": "U",
        "meta_norad_cat_id": 38208,
        "meta_element_set_no": 999,
        "meta_rev_at_epoch": 71009,
        "meta_bstar": 0.003692922,
        "meta_mean_motion_dot": 0.0003026,
        "meta_mean_motion_ddot": 0,
        "tle_line1": "1 38208U 93036BSY 25336.62952978  .00030260  00000+0  36929-2 0  9990",
        "tle_line2": "2 38208  74.0061  98.9729 0003965 183.0621 198.6540 14.83188605710093"
      },
      "geometry": {
        "type": "Point",
        "coordinates": [
          -24.28778357284583,
          -71.88288483303668
        ]
      }
    },
    {
      "type": "Feature",
      "properties": {
        "norad_id": 38212,
        "name": "COSMOS 2251 DEB",
        "group": "cosmos-2251-debris",
        "lat": 19.56606548033506,
        "lon": 97.80889356070111,
        "alt_km": 687.4757192935358,
        "timestamp": "2025-12-04T21:36:16.270045+00:00",
        "meta_object_name": "COSMOS 2251 DEB",
        "meta_object_id": "1993-036BTC",
        "meta_epoch": "2025-11-30T02:08:11.826528",
        "meta_mean_motion": 14.77531577,
        "meta_eccentricity": 0.00935039,
        "meta_inclination": 74.0506,
        "meta_ra_of_asc_node": 101.4043,
        "meta_arg_of_pericenter": 172.1987,
        "meta_mean_anomaly": 188.0671,
        "meta_ephemeris_type": 0,
        "meta_classification_type": "U",
        "meta_norad_cat_id": 38212,
        "meta_element_set_no": 999,
        "meta_rev_at_epoch": 81123,
        "meta_bstar": 0.000758158,
        "meta_mean_motion_dot": 5.788e-05,
        "meta_mean_motion_ddot": 0,
        "tle_line1": "1 38212U 93036BTC 25334.08902577  .00005788  00000+0  75816-3 0  9999",
        "tle_line2": "2 38212  74.0506 101.4043 0093503 172.1987 188.0671 14.77531577811231"
      },
      "geometry": {
        "type": "Point",
        "coordinates": [
          97.80889356070111,
          19.56606548033506
        ]
      }
    },
    {
      "type": "Feature",
      "properties": {
        "norad_id": 38220,
        "name": "COSMOS 2251 DEB",
        "group": "cosmos-2251-debris",
        "lat": 64.84786342665798,
        "lon": -133.56162255782854,
        "alt_km": 582.3323331322254,
        "timestamp": "2025-12-04T21:36:16.270055+00:00",
        "meta_object_name": "COSMOS 2251 DEB",
        "meta_object_id": "1993-036BTL",
        "meta_epoch": "2025-12-02T14:23:55.852800",
        "meta_mean_motion": 14.91852197,
        "meta_eccentricity": 0.0003685,
        "meta_inclination": 74.0146,
        "meta_ra_of_asc_node": 88.6858,
        "meta_arg_of_pericenter": 99.6245,
        "meta_mean_anomaly": 260.5354,
        "meta_ephemeris_type": 0,
        "meta_classification_type": "U",
        "meta_norad_cat_id": 38220,
        "meta_element_set_no": 999,
        "meta_rev_at_epoch": 71219,
        "meta_bstar": 0.0045511067,
        "meta_mean_motion_dot": 0.00046254,
        "meta_mean_motion_ddot": 0,
        "tle_line1": "1 38220U 93036BTL 25336.59995200  .00046254  00000+0  45511-2 0  9992",
        "tle_line2": "2 38220  74.0146  88.6858 0003685  99.6245 260.5354 14.91852197712191"
      },
      "geometry": {
        "type": "Point",
        "coordinates": [
          -133.56162255782854,
          64.84786342665798
        ]
      }
    }
  ]
}